STARS-AO
1 43679U 18084J   25164.78972949  .00008776  00000-0  52532-3 0  9991
2 43679  98.0742 351.9910 0002272  15.0587 345.0709 15.11281980361721
KAIDUN-1
1 41915U 17002C   25165.20351811  .00054476  00000-0  61931-3 0  9999
2 41915  97.1532 194.1085 0002941  59.1615 300.9933 15.62146572466709
CAS-4B (ZHUHAI-1 02)
1 42759U 17034B   25165.06689197  .00092055  00000-0  93273-3 0  9995
2 42759  43.0075 295.1305 0021438 319.7473  40.1804 15.63955385443306
CAS-4A (ZHUHAI-1 01)
1 42761U 17034D   25164.77726420  .00108913  00000-0  10451-2 0  9993
2 42761  43.0113 293.9667 0022621 322.0659  37.8613 15.65217203443276
EAGLESAT-1
1 43018U 17073F   25165.18388277  .00068895  00000-0  12170-2 0  9996
2 43018  97.5395  59.0657 0087885  77.7771 283.3303 15.45835266411216
LUOJIA-1 01
1 43485U 18048B   25165.18617976  .00002309  00000-0  27536-3 0  9999
2 43485  97.8425 244.1232 0008011 245.3667 114.6714 14.85232339379533
DIWATA-2B (PO-101)
1 43678U 18084H   25165.19651535  .00001277  00000-0  11256-3 0  9998
2 43678  98.1041 341.4978 0007095 275.7064  84.3348 14.98355968361076
ESHAIL-2
1 43700U 18090A   25164.93154535  .00000159  00000-0  00000-0 0  9990
2 43700   0.0190 334.4270 0002285 139.9527 149.2621  1.00269815 23981
K2SAT
1 43761U 18099D   25164.86136651  .00003189  00000-0  23294-3 0  9996
2 43761  97.4691 213.5955 0012951 154.7021 205.4842 15.04289432356699
AISTECHSAT-2
1 43768U 18099L   25164.89934074  .00008462  00000-0  51774-3 0  9994
2 43768  97.4811 216.0948 0006621 124.3398 235.8459 15.10450513356594
SNUSAT-2
1 43782U 18099AA  25164.70250558  .00011957  00000-0  64780-3 0  9992
2 43782  97.4586 219.4602 0013334 135.4450 224.7856 15.14678989357125
ITASAT-1
1 43786U 18099AE  25165.10932365  .00009753  00000-0  55463-3 0  9993
2 43786  97.4550 219.3561 0014363 184.3775 175.7333 15.12989693357141
IRVINE02
1 43789U 18099AH  25165.17375060  .00037496  00000-0  99958-3 0  9998
2 43789  97.4648 233.1941 0010644 124.2435 235.9819 15.38007982357713
EAGLET-1
1 43790U 18099AJ  25165.12568574  .00005085  00000-0  32420-3 0  9999
2 43790  97.4751 219.3145 0012526 166.4703 193.6864 15.09093720356755
ESEO
1 43792U 18099AL  25164.86347002  .00002003  00000-0  15433-3 0  9994
2 43792  97.4492 212.2644 0014209 142.4512 217.7709 15.02642628356461
CSIM-FD
1 43793U 18099AM  25165.21518683  .00133136  00000-0  80612-3 0  9993
2 43793  97.4800 243.4642 0005295 178.3902 181.7382 15.77174037358370
HIBER-2
1 43774U 18099S   25165.13020862  .00052715  00000-0  13755-2 0  9996
2 43774  97.4880 234.3166 0007139 119.8929 240.3026 15.38620118357880
MINXSS-2
1 43758U 18099A   25164.72417253  .00027532  00000-0  10728-2 0  9992
2 43758  97.5014 230.7720 0013110 137.5903 222.6350 15.25855164357603
FOX-1CLIFF (AO-95)
1 43770U 18099N   25164.14411241  .00008049  00000-0  40672-3 0  9997
2 43770  97.4909 222.1901 0010519 190.6149 169.4864 15.17286089357093
MOVE-II
1 43780U 18099Y   25164.77913189  .00498676  00000-0  26509-2 0  9996
2 43780  97.4637 240.7372 0005606 197.1498 162.9581 15.79134428358463
CORVUS-BC4
1 43767U 18099K   25164.85875646  .00006116  00000-0  39651-3 0  9992
2 43767  97.4581 213.4808 0009114 177.8097 182.3173 15.08422473356806
CZ-4B R/B
1 43656U 18081B   25165.18034870  .00000108  00000-0  50241-4 0  9997
2 43656  99.3961  48.4634 0204384 246.3178 111.6436 14.31650948346640
COSMOS 2504 [i]
1 40555U 15020D   25165.15337751  .00000198  00000-0  67607-4 0  9996
2 40555  82.5161 155.6804 0608812 194.3426 163.9756 13.61040526500120
MERIDIAN-4
1 37398U 11018A   25164.43532000 -.00000251  00000-0 -27875-2 0  9997
2 37398  62.1133 133.5056 7358756 260.9232  17.3044  2.00544468103361
MERIDIAN-6
1 38995U 12063A   25163.74576052  .00000119  00000-0  00000-0 0  9990
2 38995  64.7696  46.1672 7242458 231.6561  38.3900  2.00715905 92098
MERIDIAN-7
1 40296U 14069A   25164.29971525  .00000225  00000-0  00000-0 0  9998
2 40296  63.4839 253.3996 6827383 272.4746  17.5742  2.00617427 77832
METOP-C
1 43689U 18087A   25165.14934353  .00000126  00000-0  77411-4 0  9998
2 43689  98.7152 225.4248 0002071 125.2342 234.9029 14.21487910342544
FENGYUN-3B
1 37214U 10059A   25165.20360052  .00000095  00000-0  72893-4 0  9996
2 37214  99.0122 203.6316 0022757 146.8355 295.8734 14.14731740755432
FENGYUN-3C
1 39260U 13052A   25165.24226013  .00000075  00000-0  59020-4 0  9992
2 39260  98.4542 151.9891 0014858   7.8095 352.3308 14.15628680606572
EWS-G1 (GOES-13)
1 29155U 06018A   25164.45114051  .00000032  00000-0  00000-0 0  9991
2 29155   3.5721  80.9523 0060956 266.5559 296.3493  0.98788417 39609
FENGYUN-2H
1 43491U 18050A   25164.91925468 -.00000112  00000-0  00000-0 0  9992
2 43491   2.0815  83.4770 0000857  86.4794 142.4568  1.00267808 25746
FENGYUN-2G
1 40367U 14090A   25164.87550310 -.00000291  00000-0  00000-0 0  9994
2 40367   4.7054  77.3097 0003566 140.9153  99.0256  1.00275187 38304
INMARSAT 4-F1
1 28628U 05009A   25164.80707838  .00000045  00000-0  00000-0 0  9998
2 28628   4.6913  42.2414 0002665  47.2678 281.5222  1.00272711 73970
INMARSAT 4-F2
1 28899U 05044A   25164.82475493 -.00000248  00000-0  00000-0 0  9994
2 28899   4.6176  43.4717 0002486  45.2390 254.0711  1.00271329 71824
INMARSAT 4-F3
1 33278U 08039A   25164.81124200 -.00000127  00000-0  00000-0 0  9990
2 33278   3.9868  29.9096 0002484  56.4732  10.0114  1.00272405 42856
INMARSAT 4A-F4 (ALPHASAT)
1 39215U 13038A   25165.15393685  .00000147  00000-0  00000+0 0  9995
2 39215   2.9425   4.4297 0001950  81.7147 256.8026  1.00272840 43586
ASTROCAST
1 43798U 18099AS  25164.71172725  .00026230  00000-0  93679-3 0  9998
2 43798  97.4833 232.2541 0009347 101.5799 258.6490 15.28785735357809
JY1SAT (JO-97)
1 43803U 18099AX  25165.12423132  .00017301  00000-0  78270-3 0  9991
2 43803  97.4651 224.1596 0009003 124.7076 235.5008 15.20941693357468
SUOMI-100
1 43804U 18099AY  25164.68469735  .00015889  00000-0  77123-3 0  9996
2 43804  97.4722 223.0086 0013849 130.1302 230.1148 15.18475035357326
GEO-KOMPSAT-2A
1 43823U 18100A   25165.04122340 -.00000329  00000-0  00000+0 0  9999
2 43823   0.0550 144.0155 0002446 302.9471 318.7344  1.00271886 23978
UWE-4
1 43880U 18111E   25164.73712316  .00022371  00000-0  86908-3 0  9992
2 43880  97.5906  77.6722 0011574 185.9747 174.1354 15.26019346354263
D-STAR ONE SPARROW
1 43881U 18111F   25164.72460066  .00033735  00000-0  11141-2 0  9996
2 43881  97.6109  82.1033 0005677 205.8862 154.2096 15.31307657354424
METEOR M2-2
1 44387U 19038A   25165.20477054  .00000062  00000-0  46492-4 0  9992
2 44387  98.8743 142.9311 0001714  41.4478 318.6830 14.24209847308910
MOMENTUS-X1
1 44408U 19038Y   25164.56419677  .00026467  00000-0  58096-3 0  9990
2 44408  97.7172 177.6585 0010444 276.4442  83.5616 15.43972597329326
MERIDIAN-8
1 44453U 19046A   25163.86354692  .00000201  00000-0  00000-0 0  9993
2 44453  62.8323  96.6466 6930103 273.8597  16.1604  2.00611128 42933
TAURUS-1
1 44530U 19059C   25165.09493242  .00008793  00000-0  16151-2 0  9995
2 44530  98.6081 304.7017 0009284  31.0766 329.0984 14.65905620304604
GAOFEN 12-01
1 44819U 19082A   25165.20842972  .00000422  00000-0  61924-4 0  9993
2 44819  97.8129 176.2177 0004030 111.0946 249.0698 14.80404129299645
DUCHIFAT-3
1 44854U 19089C   25165.14306878  .00040562  00000-0  78007-3 0  9990
2 44854  36.9442 326.1771 0004509 343.9206  16.1407 15.46955384303653
CAS-6 (TO-108)
1 44881U 19093C   25165.20733022  .00000937  00000-0  11424-3 0  9999
2 44881  97.7924 240.7603 0013015 211.1754 148.8690 14.85610910296769
ELEKTRO-L3
1 44903U 19095A   25164.91903939 -.00000083  00000-0  00000-0 0  9997
2 44903   0.0703 170.0665 0000710 297.9507 201.3697  1.00271701 20014
DOSAAF-85 (RS-44)
1 44909U 19096E   25164.85372102  .00000052  00000-0  17001-3 0  9996
2 44909  82.5214 224.4388 0216276 285.6810  72.0526 12.79741180255234
MERIDIAN-9
1 45254U 20015A   25164.58592456 -.00000141  00000-0  00000+0 0  9996
2 45254  65.2763 359.2145 6942178 283.8477  12.8775  2.00605462 38912
ION-MK01
1 46274U 20061C   25164.93559204  .00039225  00000-0  66410-3 0  9998
2 46274  97.2426 232.6810 0002318 165.2273 194.9048 15.51454621265650
UPMSAT-2
1 46276U 20061E   25164.76812982  .00108260  00000-0  91923-3 0  9999
2 46276  97.2434 239.2918 0001999 162.9337 197.1992 15.69301516266121
DEKART
1 46493U 20068H   25164.92101210  .00013961  00000-0  52416-3 0  9997
2 46493  97.8576 146.1812 0012732 136.6105 223.6137 15.27253840259388
NORBY
1 46494U 20068J   25165.18807782  .00010520  00000-0  34407-3 0  9992
2 46494  97.8555 149.0958 0011657 127.0319 233.1990 15.31847612259592
SALSAT (TUBSAT 22)
1 46495U 20068K   25164.88721945  .00010296  00000-0  44256-3 0  9998
2 46495  97.8604 143.1146 0012471 140.6889 219.5254 15.22800512259184
NETSAT-4
1 46504U 20068U   25165.18496626  .00012291  00000-0  41876-3 0  9990
2 46504  97.8454 143.2736 0007372 170.8231 189.3145 15.30520444259257
NETSAT-3
1 46505U 20068V   25164.85477993  .00018008  00000-0  64051-3 0  9992
2 46505  97.8453 141.8556 0006719 182.6438 177.4766 15.29029070259169
NETSAT-1
1 46506U 20068W   25164.85524070  .00011883  00000-0  48978-3 0  9996
2 46506  97.8483 139.6522 0005774 199.3836 160.7181 15.24235686259015
NETSAT-2
1 46507U 20068X   25165.17671232  .00013591  00000-0  46833-3 0  9992
2 46507  97.8453 142.7484 0004799 193.4175 166.6938 15.30140734259192
ARKTIKA-M1
1 47719U 21016A   25163.14667309 -.00000003  00000-0  00000-0 0  9995
2 47719  63.1486 108.3330 7108263 268.6380  16.5702  2.00594420 31366
SIMBA
1 47941U 21022K   25165.17270773  .00031902  00000-0  66048-3 0  9997
2 47941  97.4223  69.8117 0007218 302.2025  57.8524 15.45688862233909
UNISAT-7
1 47945U 21022P   25165.21652722  .00011236  00000-0  39555-3 0  9995
2 47945  97.4212  63.8407 0009900 316.0514  43.9938 15.29441576233426
GRBALPHA
1 47959U 21022AD  25160.45426454  .07979523  25524-5  90936-3 0  9994
2 47959  97.3889  75.6219 0010935 224.3674 135.6748 16.36820468232696
